COSMOS 2426 (717)       
1 29671U 06062B   20002.31355766 -.00000023  00000-0  10000-3 0  9999
2 29671  65.0324 273.5614 0019792 173.9187  95.3496  2.12962170101333
COSMOS 2433 (720)       
1 32275U 07052A   20001.82944777 -.00000052  00000-0  10000-3 0  9996
2 32275  65.9260  34.5088 0005259 251.0892  61.5521  2.13104400 94834
COSMOS 2432 (719)       
1 32276U 07052B   20001.72480134 -.00000053  00000-0  10000-3 0  9999
2 32276  65.9395  34.5960 0011223 318.1543 224.7727  2.13103567 94833
COSMOS 2434 (721)       
1 32393U 07065A   20001.66358648 -.00000021  00000-0  00000+0 0  9990
2 32393  64.6381 272.1785 0002377  82.5155 350.2929  2.13102984 93548
COSMOS 2436 (723)       
1 32395U 07065C   20001.77468183 -.00000021  00000-0  10000-3 0  9995
2 32395  64.6481 272.2234 0015420 338.3645 293.8911  2.13280867 93472
COSMOS 2456 (730)       
1 36111U 09070A   20001.69229149  .00000073  00000-0  00000-0 0  9993
2 36111  64.2142 151.8345 0002639 353.2735 274.9194  2.13102794 78200
COSMOS 2457 (733)       
1 36112U 09070B   20001.96779920  .00000074  00000-0  00000+0 0  9991
2 36112  64.1965 151.7223 0006782 147.9943  95.6374  2.13101413 78215
COSMOS 2459 (731)       
1 36400U 10007A   20001.73614582 -.00000053  00000-0  10000-3 0  9993
2 36400  65.8305  33.5037 0025252 344.5363 111.3793  2.13105050 76563
COSMOS 2461 (735)       
1 36401U 10007B   20002.10645483 -.00000050  00000-0  10000-3 0  9997
2 36401  65.8231  33.4624 0004493  62.6866 227.3148  2.13101897 76560
COSMOS 2460 (732)       
1 36402U 10007C   20001.36621672 -.00000055  00000-0  10000-3 0  9994
2 36402  65.8127  33.4483 0002323 246.4957 235.0877  2.13101374 76555
COSMOS 2464 (736)       
1 37139U 10041C   20001.63679119 -.00000021  00000-0  00000-0 0  9998
2 37139  64.2391 271.7021 0026720   9.5262 267.5627  2.13100669 72621
COSMOS 2474 (742)       
1 37829U 11055A   20001.82914683  .00000076  00000-0  00000+0 0  9997
2 37829  64.5349 152.7849 0008012 240.2185 348.4683  2.13101822 64209
COSMOS 2476 (744)       
1 37867U 11064A   20002.20350917  .00000077  00000-0  00000+0 0  9997
2 37867  64.5144 152.8195 0017547 233.1876 328.8869  2.13101871 63560
COSMOS 2477 (745)       
1 37868U 11064B   20002.02940602  .00000077  00000-0  00000+0 0  9994
2 37868  64.5231 152.8800 0015125 233.9631  13.1422  2.13101706 63519
COSMOS 2475 (743)       
1 37869U 11064C   20001.70801274  .00000075  00000-0  00000-0 0  9999
2 37869  64.5310 152.8908 0018635 260.1814  57.6363  2.13101878 63518
COSMOS 2485 (747)       
1 39155U 13019A   20001.94322340  .00000077  00000-0  00000+0 0  9990
2 39155  64.6832 153.0611 0018206 228.4813 178.5681  2.13101825 52035
COSMOS 2492 (754)       
1 39620U 14012A   20001.58945657 -.00000054  00000-0  10000-3 0  9994
2 39620  65.7038  33.2471 0014373 316.8746 213.8635  2.13103279 44974
COSMOS 2500 (755)       
1 40001U 14032A   20001.78591127 -.00000053  00000-0  00000+0 0  9996
2 40001  65.6433  33.1681 0008240 217.1611 325.2180  2.13102470 43197
COSMOS 2501 (702K)      
1 40315U 14075A   20001.70390855 -.00000022  00000-0  00000+0 0  9994
2 40315  63.9575 272.7087 0015848 210.3367  65.4576  2.13098422 39591
COSMOS 2514 (751)       
1 41330U 16008A   20001.69683890 -.00000054  00000-0  00000-0 0  9998
2 41330  65.4468  33.0855 0011891 222.1734  73.9762  2.13102958 30357
COSMOS 2516 (753)       
1 41554U 16032A   20001.62350125 -.00000022  00000-0  00000+0 0  9992
2 41554  64.1814 272.7350 0012207 223.7470 266.7863  2.13101743 27962
COSMOS 2522 (752)       
1 42939U 17055A   20001.97740023 -.00000022  00000-0  00000+0 0  9994
2 42939  64.4123 272.8548 0007668 255.8906  12.6791  2.13102017 17727
COSMOS 2527 (756)       
1 43508U 18053A   20002.36709478  .00000078  00000-0  00000+0 0  9999
2 43508  64.8460 152.8583 0005966 214.4809  24.6191  2.13102545 12027
COSMOS 2529 (757)       
1 43687U 18086A   20001.57426296 -.00000022  00000-0  00000+0 0  9999
2 43687  64.6257 272.9398 0010606 276.1377 358.8110  2.13102061  9029
COSMOS 2534 (758)       
1 44299U 19030A   20001.59874172 -.00000022  00000-0  00000+0 0  9991
2 44299  64.6947 272.7422 0014081 292.7620 136.0922  2.13101936  4670
